{"type": "FeatureCollection", "features": [ {"type": "Feature", "properties": {"norad_id": 31915, "name": "FENGYUN 1C DEB", "group": "fengyun-1c-debris", "lat": 80.81171328349438, "lon": -72.5285847789997, "alt_km": 897.0399496538394, "timestamp": "2025-12-05T07:38:19.130383+00:00", "meta": {"OBJECT_NAME": "FENGYUN 1C DEB", "OBJECT_ID": "1999-025CLS", "EPOCH": "2025-12-03T19:37:06.159360", "MEAN_MOTION": 14.16161008, "ECCENTRICITY": 0.010098, "INCLINATION": 98.6318, "RA_OF_ASC_NODE": 355.9133, "ARG_OF_PERICENTER": 295.7312, "MEAN_ANOMALY": 63.3466, "EPHEMERIS_TYPE": 0, "CLASSIFICATION_TYPE": "U", "NORAD_CAT_ID": 31915, "ELEMENT_SET_NO": 999, "REV_AT_EPOCH": 63981, "BSTAR": 0.0017073, "MEAN_MOTION_DOT": 3.507e-05, "MEAN_MOTION_DDOT": 0}, "tle": {"line1": "1 31915U 99025CLS 25337.81743240  .00003507  00000+0  17073-2 0  9997", "line2": "2 31915  98.6318 355.9133 0100980 295.7312  63.3466 14.16161008639815"}}, "geometry": {"type": "Point", "coordinates": [-72.5285847789997, 80.81171328349438]}}, {"type": "Feature", "properties": {"norad_id": 31916, "name": "FENGYUN 1C DEB", "group": "fengyun-1c-debris", "lat": -33.76182870666962, "lon": -122.3677124386801, "alt_km": 799.8844353343302, "timestamp": "2025-12-05T07:38:19.130393+00:00", "meta": {"OBJECT_NAME": "FENGYUN 1C DEB", "OBJECT_ID": "1999-025CLT", "EPOCH": "2025-12-02T23:19:56.831520", "MEAN_MOTION": 14.32359509, "ECCENTRICITY": 0.01476369, "INCLINATION": 99.3314, "RA_OF_ASC_NODE": 61.419, "ARG_OF_PERICENTER": 124.663, "MEAN_ANOMALY": 236.8568, "EPHEMERIS_TYPE": 0, "CLASSIFICATION_TYPE": "U", "NORAD_CAT_ID": 31916, "ELEMENT_SET_NO": 999, "REV_AT_EPOCH": 64387, "BSTAR": 0.0021995527, "MEAN_MOTION_DOT": 6.66e-05, "MEAN_MOTION_DDOT": 0}, "tle": {"line1": "1 31916U 99025CLT 25336.97218555  .00006660  00000+0  21996-2 0  9992", "line2": "2 31916  99.3314  61.4190 0147636 124.6630 236.8568 14.32359509643878"}}, "geometry": {"type": "Point", "coordinates": [-122.3677124386801, -33.76182870666962]}}, {"type": "Feature", "properties": {"norad_id": 31917, "name": "FENGYUN 1C DEB", "group": "fengyun-1c-debris", "lat": 14.55337856583548, "lon": -29.891462044156096, "alt_km": 695.8276321617668, "timestamp": "2025-12-05T07:38:19.130403+00:00", "meta": {"OBJECT_NAME": "FENGYUN 1C DEB", "OBJECT_ID": "1999-025CLU", "EPOCH": "2025-12-02T06:07:47.080128", "MEAN_MOTION": 14.37534307, "ECCENTRICITY": 0.01898264, "INCLINATION": 98.3598, "RA_OF_ASC_NODE": 329.3164, "ARG_OF_PERICENTER": 324.9516, "MEAN_ANOMALY": 46.343, "EPHEMERIS_TYPE": 0, "CLASSIFICATION_TYPE": "U", "NORAD_CAT_ID": 31917, "ELEMENT_SET_NO": 999, "REV_AT_EPOCH": 96271, "BSTAR": 0.00097434798, "MEAN_MOTION_DOT": 3.546e-05, "MEAN_MOTION_DDOT": 0}, "tle": {"line1": "1 31917U 99025CLU 25336.25540602  .00003546  00000+0  97435-3 0  9997", "line2": "2 31917  98.3598 329.3164 0189826 324.9516  46.3430 14.37534307962719"}}, "geometry": {"type": "Point", "coordinates": [-29.891462044156096, 14.55337856583548]}}, {"type": "Feature", "properties": {"norad_id": 31919, "name": "FENGYUN 1C DEB", "group": "fengyun-1c-debris", "lat": -14.57560182252476, "lon": 123.57955737574834, "alt_km": 776.2787836034795, "timestamp": "2025-12-05T07:38:19.130413+00:00", "meta": {"OBJECT_NAME": "FENGYUN 1C DEB", "OBJECT_ID": "1999-025CLW", "EPOCH": "2025-12-04T04:17:33.415872", "MEAN_MOTION": 14.45698522, "ECCENTRICITY": 0.0101959, "INCLINATION": 99.1011, "RA_OF_ASC_NODE": 119.9692, "ARG_OF_PERICENTER": 232.0903, "MEAN_ANOMALY": 305.4598, "EPHEMERIS_TYPE": 0, "CLASSIFICATION_TYPE": "U", "NORAD_CAT_ID": 31919, "ELEMENT_SET_NO": 999, "REV_AT_EPOCH": 96957, "BSTAR": 0.0010766904, "MEAN_MOTION_DOT": 4.011e-05, "MEAN_MOTION_DDOT": 0}, "tle": {"line1": "1 31919U 99025CLW 25338.17885898  .00004011  00000+0  10767-2 0  9991", "line2": "2 31919  99.1011 119.9692 0101959 232.0903 305.4598 14.45698522969573"}}, "geometry": {"type": "Point", "coordinates": [123.57955737574834, -14.57560182252476]}}, {"type": "Feature", "properties": {"norad_id": 31921, "name": "FENGYUN 1C DEB", "group": "fengyun-1c-debris", "lat": 73.38905461438752, "lon": 85.31945156257026, "alt_km": 1123.117921871175, "timestamp": "2025-12-05T07:38:19.130423+00:00", "meta": {"OBJECT_NAME": "FENGYUN 1C DEB", "OBJECT_ID": "1999-025CLY", "EPOCH": "2025-11-28T10:59:40.701408", "MEAN_MOTION": 13.75221873, "ECCENTRICITY": 0.02030283, "INCLINATION": 99.3395, "RA_OF_ASC_NODE": 225.1205, "ARG_OF_PERICENTER": 302.7278, "MEAN_ANOMALY": 55.4443, "EPHEMERIS_TYPE": 0, "CLASSIFICATION_TYPE": "U", "NORAD_CAT_ID": 31921, "ELEMENT_SET_NO": 999, "REV_AT_EPOCH": 92110, "BSTAR": 0.0013372517, "MEAN_MOTION_DOT": 1.443e-05, "MEAN_MOTION_DDOT": 0}, "tle": {"line1": "1 31921U 99025CLY 25332.45810997  .00001443  00000+0  13373-2 0  9999", "line2": "2 31921  99.3395 225.1205 0203028 302.7278  55.4443 13.75221873921104"}}, "geometry": {"type": "Point", "coordinates": [85.31945156257026, 73.38905461438752]}}, {"type": "Feature", "properties": {"norad_id": 31922, "name": "FENGYUN 1C DEB", "group": "fengyun-1c-debris", "lat": 34.70015445667373, "lon": -34.982028951762224, "alt_km": 822.3467901780095, "timestamp": "2025-12-05T07:38:19.130433+00:00", "meta": {"OBJECT_NAME": "FENGYUN 1C DEB", "OBJECT_ID": "1999-025CLZ", "EPOCH": "2025-12-04T13:00:45.807840", "MEAN_MOTION": 13.86555453, "ECCENTRICITY": 0.0161499, "INCLINATION": 98.8046, "RA_OF_ASC_NODE": 330.4481, "ARG_OF_PERICENTER": 48.6741, "MEAN_ANOMALY": 75.172, "EPHEMERIS_TYPE": 0, "CLASSIFICATION_TYPE": "U", "NORAD_CAT_ID": 31922, "ELEMENT_SET_NO": 999, "REV_AT_EPOCH": 92903, "BSTAR": 0.0021385, "MEAN_MOTION_DOT": 2.713e-05, "MEAN_MOTION_DDOT": 0}, "tle": {"line1": "1 31922U 99025CLZ 25338.54219685  .00002713  00000+0  21385-2 0  9996", "line2": "2 31922  98.8046 330.4481 0161499  48.6741  75.1720 13.86555453929037"}}, "geometry": {"type": "Point", "coordinates": [-34.982028951762224, 34.70015445667373]}}, {"type": "Feature", "properties": {"norad_id": 31923, "name": "FENGYUN 1C DEB", "group": "fengyun-1c-debris", "lat": -8.670590862596063, "lon": 75.42410866027932, "alt_km": 860.2366157293063, "timestamp": "2025-12-05T07:38:19.130444+00:00", "meta": {"OBJECT_NAME": "FENGYUN 1C DEB", "OBJECT_ID": "1999-025CMA", "EPOCH": "2025-11-27T04:43:30.487296", "MEAN_MOTION": 13.54838652, "ECCENTRICITY": 0.0299441, "INCLINATION": 98.4405, "RA_OF_ASC_NODE": 67.1712, "ARG_OF_PERICENTER": 344.5928, "MEAN_ANOMALY": 14.6245, "EPHEMERIS_TYPE": 0, "CLASSIFICATION_TYPE": "U", "NORAD_CAT_ID": 31923, "ELEMENT_SET_NO": 999, "REV_AT_EPOCH": 63424, "BSTAR": 0.0012454, "MEAN_MOTION_DOT": 1.103e-05, "MEAN_MOTION_DDOT": 0}, "tle": {"line1": "1 31923U 99025CMA 25331.19688064  .00001103  00000+0  12454-2 0  9991", "line2": "2 31923  98.4405  67.1712 0299441 344.5928  14.6245 13.54838652634244"}}, "geometry": {"type": "Point", "coordinates": [75.42410866027932, -8.670590862596063]}}, {"type": "Feature", "properties": {"norad_id": 31924, "name": "FENGYUN 1C DEB", "group": "fengyun-1c-debris", "lat": 13.711974225102214, "lon": 135.5965943534353, "alt_km": 1061.60891487971, "timestamp": "2025-12-05T07:38:19.130454+00:00", "meta": {"OBJECT_NAME": "FENGYUN 1C DEB", "OBJECT_ID": "1999-025CMB", "EPOCH": "2025-12-02T16:11:07.216512", "MEAN_MOTION": 13.63863085, "ECCENTRICITY": 0.02736997, "INCLINATION": 98.4029, "RA_OF_ASC_NODE": 135.3746, "ARG_OF_PERICENTER": 123.6218, "MEAN_ANOMALY": 239.1368, "EPHEMERIS_TYPE": 0, "CLASSIFICATION_TYPE": "U", "NORAD_CAT_ID": 31924, "ELEMENT_SET_NO": 999, "REV_AT_EPOCH": 91330, "BSTAR": 0.001814892, "MEAN_MOTION_DOT": 1.824e-05, "MEAN_MOTION_DDOT": 0}, "tle": {"line1": "1 31924U 99025CMB 25336.67438908  .00001824  00000+0  18149-2 0  9997", "line2": "2 31924  98.4029 135.3746 0273699 123.6218 239.1368 13.63863085913302"}}, "geometry": {"type": "Point", "coordinates": [135.5965943534353, 13.711974225102214]}}, {"type": "Feature", "properties": {"norad_id": 31926, "name": "FENGYUN 1C DEB", "group": "fengyun-1c-debris", "lat": 72.17286480082723, "lon": -76.2948600223811, "alt_km": 809.5808474644764, "timestamp": "2025-12-05T07:38:19.130464+00:00", "meta": {"OBJECT_NAME": "FENGYUN 1C DEB", "OBJECT_ID": "1999-025CMD", "EPOCH": "2025-12-02T05:17:05.814816", "MEAN_MOTION": 14.30511949, "ECCENTRICITY": 0.0037969, "INCLINATION": 98.9584, "RA_OF_ASC_NODE": 71.1415, "ARG_OF_PERICENTER": 283.3692, "MEAN_ANOMALY": 76.3258, "EPHEMERIS_TYPE": 0, "CLASSIFICATION_TYPE": "U", "NORAD_CAT_ID": 31926, "ELEMENT_SET_NO": 999, "REV_AT_EPOCH": 95077, "BSTAR": 0.002944, "MEAN_MOTION_DOT": 7.692e-05, "MEAN_MOTION_DDOT": 0}, "tle": {"line1": "1 31926U 99025CMD 25336.22020619  .00007692  00000+0  29440-2 0  9991", "line2": "2 31926  98.9584  71.1415 0037969 283.3692  76.3258 14.30511949950778"}}, "geometry": {"type": "Point", "coordinates": [-76.2948600223811, 72.17286480082723]}}, {"type": "Feature", "properties": {"norad_id": 31929, "name": "FENGYUN 1C DEB", "group": "fengyun-1c-debris", "lat": 81.06953568279577, "lon": 28.5202206629617, "alt_km": 715.6711541698169, "timestamp": "2025-12-05T07:38:19.130474+00:00", "meta": {"OBJECT_NAME": "FENGYUN 1C DEB", "OBJECT_ID": "1999-025CME", "EPOCH": "2025-12-04T14:29:50.137728", "MEAN_MOTION": 14.34903077, "ECCENTRICITY": 0.0074494, "INCLINATION": 98.7917, "RA_OF_ASC_NODE": 107.8069, "ARG_OF_PERICENTER": 79.0792, "MEAN_ANOMALY": 281.8763, "EPHEMERIS_TYPE": 0, "CLASSIFICATION_TYPE": "U", "NORAD_CAT_ID": 31929, "ELEMENT_SET_NO": 999, "REV_AT_EPOCH": 70529, "BSTAR": 0.00085716, "MEAN_MOTION_DOT": 2.469e-05, "MEAN_MOTION_DDOT": 0}, "tle": {"line1": "1 31929U 99025CME 25338.60405252  .00002469  00000+0  85716-3 0  9994", "line2": "2 31929  98.7917 107.8069 0074494  79.0792 281.8763 14.34903077705296"}}, "geometry": {"type": "Point", "coordinates": [28.5202206629617, 81.06953568279577]}}]}